NORAD_CAT_ID,OBJECT_NAME,OBJECT_TYPE,EPOCH,MEAN_MOTION,ECCENTRICITY,INCLINATION,RA_OF_ASC_NODE,ARG_OF_PERICENTER,MEAN_ANOMALY,BSTAR,MEAN_MOTION_DOT,MEAN_MOTION_DDOT,TLE_LINE0,TLE_LINE1,TLE_LINE2,SEMIMAJOR_AXIS,PERIOD,APOGEE,PERIGEE,DECAYED
51868.0,STARLINK-3578,PAYLOAD,2023-06-11 03:49:18,15.08838186,0.0001185,53.2151,189.6561,85.3258,274.787,-4.1905e-05,-9.55e-06,0.0,0 STARLINK-3578,1 51868U 22022S   23162.15923861 -.00000955  00000-0 -41905-4 0  9999,2 51868  53.2151 189.6561 0001185  85.3258 274.7870 15.08838186 71763,6917.886,95.438,540.571,538.931,0.0
51868.0,STARLINK-3578,PAYLOAD,2023-06-11 11:46:14,15.08836836,0.0001168,53.2164,188.1691,89.1746,270.938,-2.1642e-05,-6.32e-06,0.0,0 STARLINK-3578,1 51868U 22022S   23162.49044274 -.00000632  00000-0 -21642-4 0  9996,2 51868  53.2164 188.1691 0001168  89.1746 270.9380 15.08836836 71810,6917.89,95.438,540.563,538.947,0.0
51868.0,STARLINK-3578,PAYLOAD,2023-06-12 08:26:14,15.08841951,0.000112,53.2159,184.304,88.3066,271.8054,2.6948e-05,1.41e-06,0.0,0 STARLINK-3578,1 51868U 22022S   23163.35155882  .00000141  00000-0  26948-4 0  9997,2 51868  53.2159 184.3040 0001120  88.3066 271.8054 15.08841951 71940,6917.874,95.437,540.514,538.965,0.0
51868.0,STARLINK-3578,PAYLOAD,2023-06-12 17:58:33,15.08841165,0.0001076,53.2158,182.52,86.4559,273.6556,-5.2458e-06,-3.71e-06,0.0,0 STARLINK-3578,1 51868U 22022S   23163.74900017 -.00000371  00000-0 -52458-5 0  9991,2 51868  53.2158 182.5200 0001076  86.4559 273.6556 15.08841165 72005,6917.877,95.437,540.486,538.997,0.0
51868.0,STARLINK-3578,PAYLOAD,2023-06-13 00:20:06,15.08834718,0.0001088,53.2158,181.3305,90.7337,269.3779,0.00010333,1.357e-05,0.0,0 STARLINK-3578,1 51868U 22022S   23164.01396335  .00001357  00000-0  10333-3 0  9991,2 51868  53.2158 181.3305 0001088  90.7337 269.3779 15.08834718 72042,6917.897,95.438,540.514,539.009,0.0
51868.0,STARLINK-3578,PAYLOAD,2023-06-13 17:49:21,15.088345,0.0001101,53.2159,178.0594,89.0538,271.058,9.148e-05,1.168e-05,0.0,0 STARLINK-3578,1 51868U 22022S   23164.74260667  .00001168  00000-0  91480-4 0  9992,2 51868  53.2159 178.0594 0001101  89.0538 271.0580 15.08834500 72157,6917.897,95.438,540.524,539.001,0.0
51868.0,STARLINK-3578,PAYLOAD,2023-06-14 01:46:16,15.08837801,0.0001113,53.2161,176.5722,88.6115,271.5005,6.9915e-05,8.25e-06,0.0,0 STARLINK-3578,1 51868U 22022S   23165.07380614  .00000825  00000-0  69915-4 0  9991,2 51868  53.2161 176.5722 0001113  88.6115 271.5005 15.08837801 72205,6917.887,95.438,540.522,538.982,0.0
51868.0,STARLINK-3578,PAYLOAD,2023-06-14 17:40:08,15.08838832,0.0001138,53.2166,173.5987,87.4471,272.6651,8.5024e-05,1.066e-05,0.0,0 STARLINK-3578,1 51868U 22022S   23165.73620658  .00001066  00000-0  85024-4 0  9996,2 51868  53.2166 173.5987 0001138  87.4471 272.6651 15.08838832 72304,6917.884,95.438,540.536,538.962,0.0
51868.0,STARLINK-3578,PAYLOAD,2023-06-15 07:58:36,15.08837347,0.0001172,53.2164,170.9222,88.4209,271.6918,7.9956e-05,9.85e-06,0.0,0 STARLINK-3578,1 51868U 22022S   23166.33236885  .00000985  00000-0  79956-4 0  9994,2 51868  53.2164 170.9222 0001172  88.4209 271.6918 15.08837347 72397,6917.888,95.438,540.564,538.943,0.0
51868.0,STARLINK-3578,PAYLOAD,2023-06-15 17:30:55,15.08837747,0.0001176,53.2164,169.138,87.1889,272.9238,6.6075e-05,7.64e-06,0.0,0 STARLINK-3578,1 51868U 22022S   23166.72980992  .00000764  00000-0  66075-4 0  9995,2 51868  53.2164 169.1380 0001176  87.1889 272.9238 15.08837747 72456,6917.887,95.438,540.566,538.939,0.0
51868.0,STARLINK-3578,PAYLOAD,2023-06-16 09:24:46,15.08842246,0.000117,53.2163,166.1642,87.6897,272.4229,7.8232e-05,9.58e-06,0.0,0 STARLINK-3578,1 51868U 22022S   23167.39220734  .00000958  00000-0  78232-4 0  9993,2 51868  53.2163 166.1642 0001170  87.6897 272.4229 15.08842246 72557,6917.874,95.437,540.548,538.929,0.0
51868.0,STARLINK-3578,PAYLOAD,2023-06-16 17:21:42,15.08842919,0.0001184,53.2164,164.6777,86.8233,273.2894,9.061e-05,1.155e-05,0.0,0 STARLINK-3578,1 51868U 22022S   23167.72340630  .00001155  00000-0  90610-4 0  9992,2 51868  53.2164 164.6777 0001184  86.8233 273.2894 15.08842919 72600,6917.871,95.437,540.556,538.917,0.0
51868.0,STARLINK-3578,PAYLOAD,2023-06-17 09:15:33,15.08845672,0.0001176,53.2161,161.7038,87.7656,272.3471,0.00011578,1.556e-05,0.0,0 STARLINK-3578,1 51868U 22022S   23168.38580293  .00001556  00000-0  11578-3 0  9996,2 51868  53.2161 161.7038 0001176  87.7656 272.3471 15.08845672 72706,6917.863,95.437,540.542,538.915,0.0
51868.0,STARLINK-3578,PAYLOAD,2023-06-17 17:12:29,15.08841546,0.0001165,53.2158,160.2173,85.7654,274.3471,7.8273e-05,9.58e-06,0.0,0 STARLINK-3578,1 51868U 22022S   23168.71700614  .00000958  00000-0  78273-4 0  9995,2 51868  53.2158 160.2173 0001165  85.7654 274.3471 15.08841546 72753,6917.876,95.437,540.547,538.935,0.0
51868.0,STARLINK-3578,PAYLOAD,2023-06-18 09:06:21,15.08835889,0.0001217,53.2161,157.2434,89.2866,270.8266,1.2345e-05,-9.1e-07,0.0,0 STARLINK-3578,1 51868U 22022S   23169.37941225 -.00000091  00000-0  12345-4 0  9990,2 51868  53.2161 157.2434 0001217  89.2866 270.8266 15.08835889 72852,6917.893,95.438,540.6,538.916,0.0
51868.0,STARLINK-3578,PAYLOAD,2023-06-19 07:21:44,15.08838921,0.0001294,53.2168,153.0815,91.2689,268.8451,3.2212e-05,2.25e-06,0.0,0 STARLINK-3578,1 51868U 22022S   23170.30677017  .00000225  00000-0  32212-4 0  9993,2 51868  53.2168 153.0815 0001294  91.2689 268.8451 15.08838921 72995,6917.884,95.438,540.644,538.854,0.0
51868.0,STARLINK-3578,PAYLOAD,2023-06-19 15:18:40,15.0884047,0.0001286,53.2169,151.5947,90.9281,269.1858,4.1438e-05,3.72e-06,0.0,0 STARLINK-3578,1 51868U 22022S   23170.63796911  .00000372  00000-0  41438-4 0  9997,2 51868  53.2169 151.5947 0001286  90.9281 269.1858 15.08840470 73044,6917.879,95.438,540.634,538.854,0.0
51868.0,STARLINK-3578,PAYLOAD,2023-06-20 08:47:54,15.08842609,0.0001217,53.2166,148.3233,89.5938,270.5194,0.00012015,1.625e-05,0.0,0 STARLINK-3578,1 51868U 22022S   23171.36660667  .00001625  00000-0  12015-3 0  9996,2 51868  53.2166 148.3233 0001217  89.5938 270.5194 15.08842609 73157,6917.872,95.437,540.579,538.896,0.0
51868.0,STARLINK-3578,PAYLOAD,2023-06-20 15:09:27,15.08836847,0.0001186,53.2165,147.1336,87.8367,272.2761,7.0346e-05,8.32e-06,0.0,0 STARLINK-3578,1 51868U 22022S   23171.63157209  .00000832  00000-0  70346-4 0  9990,2 51868  53.2165 147.1336 0001186  87.8367 272.2761 15.08836847 73199,6917.89,95.438,540.575,538.935,0.0
51868.0,STARLINK-3578,PAYLOAD,2023-06-21 02:17:09,15.0883784,0.0001175,53.2167,145.0517,86.2138,273.8989,3.4793e-05,2.66e-06,0.0,0 STARLINK-3578,1 51868U 22022S   23172.09525333  .00000266  00000-0  34793-4 0  9995,2 51868  53.2167 145.0517 0001175  86.2138 273.8989 15.08837840 73267,6917.887,95.438,540.565,538.939,0.0
51868.0,STARLINK-3578,PAYLOAD,2023-06-21 03:52:33,15.0883795,0.0001174,53.2167,144.7544,86.0396,274.0731,3.3873e-05,2.51e-06,0.0,0 STARLINK-3578,1 51868U 22022S   23172.16149352  .00000251  00000-0  33873-4 0  9998,2 51868  53.2167 144.7544 0001174  86.0396 274.0731 15.08837950 73277,6917.887,95.438,540.564,538.939,0.0
51868.0,STARLINK-3578,PAYLOAD,2023-06-21 15:00:14,15.08839326,0.0001177,53.2169,142.6729,84.5645,275.5481,5.4018e-05,5.72e-06,0.0,0 STARLINK-3578,1 51868U 22022S   23172.62517246  .00000572  00000-0  54018-4 0  9990,2 51868  53.2169 142.6729 0001177  84.5645 275.5481 15.08839326 73349,6917.882,95.438,540.562,538.933,0.0
51868.0,STARLINK-3578,PAYLOAD,2023-06-22 08:29:29,15.08837014,0.0001206,53.2168,139.402,83.5697,276.5432,-1.6986e-05,-5.58e-06,0.0,0 STARLINK-3578,1 51868U 22022S   23173.35381741 -.00000558  00000-0 -16986-4 0  9998,2 51868  53.2168 139.4020 0001206  83.5697 276.5432 15.08837014 73456,6917.89,95.438,540.589,538.92,0.0
51868.0,STARLINK-3578,PAYLOAD,2023-06-23 01:58:43,15.08844467,0.0001131,53.2168,136.1321,87.9578,272.1543,0.00011058,1.473e-05,0.0,0 STARLINK-3578,1 51868U 22022S   23174.08244885  .00001473  00000-0  11058-3 0  9995,2 51868  53.2168 136.1321 0001131  87.9578 272.1543 15.08844467 73564,6917.867,95.437,540.514,538.949,0.0
51868.0,STARLINK-3578,PAYLOAD,2023-06-24 01:49:31,15.08829824,9.15e-05,53.2163,131.6687,93.7545,266.3552,0.00011588,1.556e-05,0.0,0 STARLINK-3578,1 51868U 22022S   23175.07605749  .00001556  00000-0  11588-3 0  9995,2 51868  53.2163 131.6687 0000915  93.7545 266.3552 15.08829824 73714,6917.911,95.438,540.409,539.144,0.0
51868.0,STARLINK-3578,PAYLOAD,2023-06-24 06:35:40,15.08840767,0.0001228,53.217,130.7764,94.3928,265.7205,5.7075e-05,6.21e-06,0.0,0 STARLINK-3578,1 51868U 22022S   23175.27477349  .00000621  00000-0  57075-4 0  9994,2 51868  53.2170 130.7764 0001228  94.3928 265.7205 15.08840767 73748,6917.878,95.438,540.593,538.894,0.0
51868.0,STARLINK-3578,PAYLOAD,2023-06-25 06:26:26,15.08853601,0.0001233,53.2172,126.3179,94.7918,265.3215,4.6441e-05,4.52e-06,0.0,0 STARLINK-3578,1 51868U 22022S   23176.26836480  .00000452  00000-0  46441-4 0  9996,2 51868  53.2172 126.3179 0001233  94.7918 265.3215 15.08853601 73894,6917.839,95.437,540.557,538.851,0.0
51868.0,STARLINK-3578,PAYLOAD,2023-06-26 03:06:28,15.08838087,0.0001401,53.2174,122.4516,96.7137,263.4014,2.9721e-05,1.85e-06,0.0,0 STARLINK-3578,1 51868U 22022S   23177.12949703  .00000185  00000-0  29721-4 0  9990,2 51868  53.2174 122.4516 0001401  96.7137 263.4014 15.08838087 74023,6917.886,95.438,540.72,538.782,0.0
51868.0,STARLINK-3578,PAYLOAD,2023-06-27 04:32:38,15.08841038,0.0001159,53.2175,117.696,96.0825,264.0299,2.7777e-05,1.54e-06,0.0,0 STARLINK-3578,1 51868U 22022S   23178.18933886  .00000154  00000-0  27777-4 0  9997,2 51868  53.2175 117.6960 0001159  96.0825 264.0299 15.08841038 74189,6917.877,95.437,540.544,538.94,0.0
51868.0,STARLINK-3578,PAYLOAD,2023-06-29 04:14:13,15.08837216,0.0001159,53.2181,108.7751,88.3866,271.7259,4.3013e-05,3.97e-06,0.0,0 STARLINK-3578,1 51868U 22022S   23180.17654700  .00000397  00000-0  43013-4 0  9994,2 51868  53.2181 108.7751 0001159  88.3866 271.7259 15.08837216 74481,6917.889,95.438,540.556,538.952,0.0
